ONEWEB-0395             
1 50475U 21132G   25252.92898985 -.00000483  00000+0 -13975-2 0  9997
2 50475  87.8774  76.9182 0001885  96.7421 263.3922 13.11418720178986
ONEWEB-0396             
1 50476U 21132H   25253.10694414  .00000032  00000+0  47999-4 0  9993
2 50476  87.9184  31.0662 0001851  95.5275 264.6068 13.18687371184726
ONEWEB-0397             
1 50477U 21132J   25253.12179529  .00000031  00000+0  44968-4 0  9993
2 50477  87.9183  31.0643 0001798  90.2674 269.8664 13.18685012184707
ONEWEB-0398             
1 50478U 21132K   25252.97309260  .00000451  00000+0  12358-2 0  9995
2 50478  87.8781  76.8744 0001574 103.1307 256.9997 13.11416333178888
ONEWEB-0399             
1 50479U 21132L   25252.95952475  .00000028  00000+0  43109-4 0  9996
2 50479  87.8773  76.8988 0002211  83.5027 276.6353 13.11420723178871
ONEWEB-0400             
1 50480U 21132M   25253.10034787  .00000015  00000+0  43081-5 0  9999
2 50480  87.9182  31.0586 0001709 103.6346 256.4977 13.18685478184696
ONEWEB-0401             
1 50481U 21132N   25253.14489665  .00000121  00000+0  27415-3 0  9992
2 50481  87.9184  31.0463 0001646  89.1430 270.9891 13.18687073184706
ONEWEB-0402             
1 50482U 21132P   25253.10860937  .00000030  00000+0  42526-4 0  9994
2 50482  87.9183  31.0468 0001569  75.5497 284.5810 13.18684825184723
